ELEKTRO-L 3             
1 44903U 19095A   26183.59760552 -.00000086  00000+0  00000+0 0  9996
2 44903   0.2953  81.9498 0001668   6.9254 122.8845  1.00272562 23861
SHIJIAN-20 (SJ-20)      
1 44910U 19097A   26181.89628159  .00000142  00000+0  00000+0 0  9995
2 44910   4.9515  74.9003 0015647  56.2439 155.2747  1.00275341 23839
TJS-5                   
1 44978U 20002A   26182.24928323 -.00000331  00000+0  00000+0 0  9994
2 44978   0.0289  52.0135 0008455   0.3338  64.1918  1.00266714 23852
GSAT-30                 
1 45026U 20005A   26183.59907887 -.00000154  00000+0  00000+0 0  9996
2 45026   0.0144  81.2423 0003630   7.2173 130.8763  1.00271628 23662
EUTELSAT KONNECT        
1 45027U 20005B   26183.58399425  .00000060  00000+0  00000+0 0  9994
2 45027   0.0695  93.4408 0002122 127.3576 277.2789  1.00270602 24495
JCSAT-17                
1 45245U 20013A   26183.48483841 -.00000304  00000+0  00000+0 0  9992
2 45245   5.3915 357.0048 0003195 114.0691 120.0102  1.00272805 23389
GEO-KOMPSAT-2B          
1 45246U 20013B   26183.39415027  .00000000  00000+0  00000+0 0  9996
2 45246   0.0176 248.6364 0000229 312.1709 349.7721  1.00265830 23436
BEIDOU-3 G2             
1 45344U 20017A   26183.67374103 -.00000131  00000+0  00000+0 0  9995
2 45344   2.8941  47.5678 0002590  45.2527 150.5300  1.00271604 23419
AEHF-6 (USA 298)        
1 45465U 20022B   26183.60983316 -.00000286  00000+0  00000+0 0  9991
2 45465   2.5155 301.3105 0041919  16.1768 320.3543  1.00276778 23160
BEIDOU-3 G3             
1 45807U 20040A   26183.60445221 -.00000344  00000+0  00000+0 0  9994
2 45807   2.4834  67.4767 0002469 333.3148 208.0191  1.00271694 22229
APSTAR-6D               
1 45863U 20045A   26180.68586466 -.00000307  00000+0  00000+0 0  9992
2 45863   0.0501  93.2652 0002259   0.9714 204.4597  1.00270673 21987
KOREASAT 116            
1 45920U 20048A   26183.60557889 -.00000351  00000+0  00000+0 0  9990
2 45920   0.0228 299.4734 0001419 197.5303 117.8600  1.00270135 21796
EXPRESS 103             
1 45985U 20053A   26182.78939428 -.00000270  00000+0  00000+0 0  9998
2 45985   0.0193 285.1671 0000472 123.1491 252.2070  1.00273136 21790
EXPRESS 80              
1 45986U 20053B   26182.99991970  .00000000  00000+0  00000+0 0  9992
2 45986   0.0189  13.6930 0001962 193.4780 152.8187  1.00269657 21779
BSAT-4B                 
1 46112U 20056A   26183.65021740 -.00000339  00000+0  00000+0 0  9996
2 46112   0.0488 147.3496 0004342 334.6594 142.5841  1.00271755 21542
MEV-2                   
1 46113U 20056B   26183.08334034 -.00000001  00000+0  00000+0 0  9993
2 46113   0.0388 265.6144 0000321 255.3379 148.1780  1.00271302 80838
GALAXY 30 (G-30)        
1 46114U 20056C   26183.55780628  .00000000  00000+0  00000+0 0  9998
2 46114   0.0213  27.0649 0002165  75.3952 253.9468  1.00271482 21440
GAOFEN-13 01            
1 46610U 20071A   26181.69697775 -.00000352  00000+0  00000+0 0  9990
2 46610   0.4313  86.4106 0044706 119.6201  81.9069  1.00274904 21054
TIANTONG-1 2            
1 46916U 20082A   26182.03902149 -.00000344  00000+0  00000+0 0  9995
2 46916   0.7736 329.4791 0001710 127.3924 321.2092  1.00270200 20792
LUCAS (JDRS-1)          
1 47202U 20089A   26183.64296309 -.00000224  00000+0  00000+0 0  9990
2 47202   0.0584 267.3009 0002340 172.5215 163.0975  1.00269389 20576
SXM-7                   
1 47240U 20096A   26183.28058558 -.00000195  00000+0  00000+0 0  9999
2 47240   0.0243  95.7612 0003950  24.2965 176.1164  1.00271000  7591
CMS-01                  
1 47256U 20099A   26183.59899220 -.00000154  00000+0  00000+0 0  9997
2 47256   0.0445  92.6366 0003085 180.4979 306.1369  1.00271449 20351
TURKSAT 5A              
1 47306U 21001A   26183.30355236  .00000165  00000+0  00000+0 0  9991
2 47306   0.0152  59.1968 0000176  14.5178 346.8407  1.00269441 20111
TIANTONG-1 3            
1 47321U 21003A   26183.67395593 -.00000143  00000+0  00000+0 0  9997
2 47321   1.7441 340.2547 0003461 124.5960 140.0245  1.00273174 20117
TJS-6                   
1 47613U 21010A   26183.54662624  .00000053  00000+0  00000+0 0  9996
2 47613   0.2129 262.8386 0003280 226.8087 166.2002  1.00270343 19960
SBIRS GEO-5 (USA 315)   
1 48618U 21042A   26183.59819135 -.00000255  00000+0  00000+0 0  9998
2 48618   5.0846 329.2309 0001869 137.6585 122.9098  1.00271599 18924
FENGYUN 4B              
1 48808U 21047A   26183.60332554 -.00000319  00000+0  00000+0 0  9992
2 48808   0.1891  79.0635 0005756 278.0415 245.4617  1.00269923 18728
SXM-8                   
1 48838U 21049A   26183.56569300 -.00000194  00000+0  00000+0 0  9994
2 48838   0.0153  23.6974 0005484  11.5058   3.8966  1.00270342 18734
TIANLIAN 1-05           
1 49011U 21063A   26182.65915148  .00000118  00000+0  00000+0 0  9993
2 49011   1.6292  80.5942 0000848  30.6362  62.6248  1.00274453 18222
STAR ONE D2             
1 49055U 21069A   26183.28353226  .00000000  00000+0  00000+0 0  9990
2 49055   0.0156  23.5667 0002288 103.6543 185.0777  1.00270842 18095
EUTELSAT QUANTUM        
1 49056U 21069B   26183.59205427  .00000137  00000+0  00000+0 0  9995
2 49056   0.0100  21.5834 0002616  80.2233  79.6537  1.00272654 18084
ZHONGXING-2E            
1 49062U 21071A   26183.60874060 -.00000281  00000+0  00000+0 0  9993
2 49062   0.0397 117.1601 0001873  23.2846  97.4063  1.00274001 18196
