OBJECT_NAME,OBJECT_ID,EPOCH,MEAN_MOTION,ECCENTRICITY,INCLINATION,RA_OF_ASC_NODE,ARG_OF_PERICENTER,MEAN_ANOMALY,EPHEMERIS_TYPE,CLASSIFICATION_TYPE,NORAD_CAT_ID,ELEMENT_SET_NO,REV_AT_EPOCH,BSTAR,MEAN_MOTION_DOT,MEAN_MOTION_DDOT
ELEKTRO-L 3,2019-095A,2026-07-02T14:20:33.116928,1.00272562,.00016685,0.2953,81.9498,6.9254,122.8845,0,U,44903,999,2386,0,-.86E-6,0
SHIJIAN-20 (SJ-20),2019-097A,2026-06-30T21:30:38.729376,1.00275341,.0015647,4.9515,74.9003,56.2439,155.2747,0,U,44910,999,2383,0,.142E-5,0
TJS-5,2020-002A,2026-07-01T05:58:58.071072,1.00266714,.0008455,0.0289,52.0135,0.3338,64.1918,0,U,44978,999,2385,0,-.331E-5,0
GSAT-30,2020-005A,2026-07-02T14:22:40.414368,1.00271628,.00036309,0.0144,81.2423,7.2173,130.8763,0,U,45026,999,2366,0,-.154E-5,0
EUTELSAT KONNECT,2020-005B,2026-07-02T14:00:57.103200,1.00270602,.00021222,0.0695,93.4408,127.3576,277.2789,0,U,45027,999,2449,0,.6E-6,0
JCSAT-17,2020-013A,2026-07-02T11:38:10.038624,1.00272805,.00031959,5.3915,357.0048,114.0691,120.0102,0,U,45245,999,2338,0,-.304E-5,0
GEO-KOMPSAT-2B,2020-013B,2026-07-02T09:27:34.583328,1.00265830,.00002291,0.0176,248.6364,312.1709,349.7721,0,U,45246,999,2343,0,0,0
BEIDOU-3 G2,2020-017A,2026-07-02T16:10:11.224992,1.00271604,.00025905,2.8941,47.5678,45.2527,150.5300,0,U,45344,999,2341,0,-.131E-5,0
AEHF-6 (USA 298),2020-022B,2026-07-02T14:38:09.585024,1.00276778,.0041919,2.5155,301.3105,16.1768,320.3543,0,U,45465,999,2316,0,-.286E-5,0
BEIDOU-3 G3,2020-040A,2026-07-02T14:30:24.670944,1.00271694,.00024698,2.4834,67.4767,333.3148,208.0191,0,U,45807,999,2222,0,-.344E-5,0
APSTAR-6D,2020-045A,2026-06-29T16:27:38.706624,1.00270673,.00022596,0.0501,93.2652,0.9714,204.4597,0,U,45863,999,2198,0,-.307E-5,0
KOREASAT 116,2020-048A,2026-07-02T14:32:02.016096,1.00270135,.00014193,0.0228,299.4734,197.5303,117.8600,0,U,45920,999,2179,0,-.351E-5,0
EXPRESS 103,2020-053A,2026-07-01T18:56:43.665792,1.00273136,.00004726,0.0193,285.1671,123.1491,252.2070,0,U,45985,999,2179,0,-.27E-5,0
EXPRESS 80,2020-053B,2026-07-01T23:59:53.062080,1.00269657,.00019628,0.0189,13.6930,193.4780,152.8187,0,U,45986,999,2177,0,0,0
BSAT-4B,2020-056A,2026-07-02T15:36:18.783360,1.00271755,.00043428,0.0488,147.3496,334.6594,142.5841,0,U,46112,999,2154,0,-.339E-5,0
MEV-2,2020-056B,2026-07-02T02:00:00.605376,1.00271302,.00003219,0.0388,265.6144,255.3379,148.1780,0,U,46113,999,8083,0,-.1E-7,0
GALAXY 30 (G-30),2020-056C,2026-07-02T13:23:14.462592,1.00271482,.00021657,0.0213,27.0649,75.3952,253.9468,0,U,46114,999,2144,0,0,0
GAOFEN-13 01,2020-071A,2026-06-30T16:43:38.877600,1.00274904,.00447061,0.4313,86.4106,119.6201,81.9069,0,U,46610,999,2105,0,-.352E-5,0
TIANTONG-1 2,2020-082A,2026-07-01T00:56:11.456736,1.00270200,.00017103,0.7736,329.4791,127.3924,321.2092,0,U,46916,999,2079,0,-.344E-5,0
LUCAS (JDRS-1),2020-089A,2026-07-02T15:25:52.010976,1.00269389,.000234,0.0584,267.3009,172.5215,163.0975,0,U,47202,999,2057,0,-.224E-5,0
SXM-7,2020-096A,2026-07-02T06:44:02.594112,1.00271000,.00039504,0.0243,95.7612,24.2965,176.1164,0,U,47240,999,759,0,-.195E-5,0
CMS-01,2020-099A,2026-07-02T14:22:32.926080,1.00271449,.00030857,0.0445,92.6366,180.4979,306.1369,0,U,47256,999,2035,0,-.154E-5,0
TURKSAT 5A,2021-001A,2026-07-02T07:17:06.923904,1.00269441,.0000176,0.0152,59.1968,14.5178,346.8407,0,U,47306,999,2011,0,.165E-5,0
TIANTONG-1 3,2021-003A,2026-07-02T16:10:29.792352,1.00273174,.00034611,1.7441,340.2547,124.5960,140.0245,0,U,47321,999,2011,0,-.143E-5,0
TJS-6,2021-010A,2026-07-02T13:07:08.507136,1.00270343,.00032805,0.2129,262.8386,226.8087,166.2002,0,U,47613,999,1996,0,.53E-6,0
SBIRS GEO-5 (USA 315),2021-042A,2026-07-02T14:21:23.732640,1.00271599,.00018693,5.0846,329.2309,137.6585,122.9098,0,U,48618,999,1892,0,-.255E-5,0
FENGYUN 4B,2021-047A,2026-07-02T14:28:47.326656,1.00269923,.00057569,0.1891,79.0635,278.0415,245.4617,0,U,48808,999,1872,0,-.319E-5,0
SXM-8,2021-049A,2026-07-02T13:34:35.875200,1.00270342,.00054846,0.0153,23.6974,11.5058,3.8966,0,U,48838,999,1873,0,-.194E-5,0
TIANLIAN 1-05,2021-063A,2026-07-01T15:49:10.687872,1.00274453,.00008486,1.6292,80.5942,30.6362,62.6248,0,U,49011,999,1822,0,.118E-5,0
STAR ONE D2,2021-069A,2026-07-02T06:48:17.187264,1.00270842,.00022882,0.0156,23.5667,103.6543,185.0777,0,U,49055,999,1809,0,0,0
EUTELSAT QUANTUM,2021-069B,2026-07-02T14:12:33.488928,1.00272654,.00026169,0.0100,21.5834,80.2233,79.6537,0,U,49056,999,1808,0,.137E-5,0
ZHONGXING-2E,2021-071A,2026-07-02T14:36:35.187840,1.00274001,.00018737,0.0397,117.1601,23.2846,97.4063,0,U,49062,999,1819,0,-.281E-5,0
